STARLINK-36079          
1 66897U 25283V   25350.21737761  .00578477  00000+0  20566-2 0  9993
2 66897  53.1545  56.2318 0004833 212.6630 147.4097 15.86956658  3008
STARLINK-36065          
1 66898U 25283W   25350.34294596 -.00360277  00000+0 -15029-2 0  9999
2 66898  53.1541  55.5915 0002932 349.8156  10.2809 15.85783112  3026
STARLINK-36064          
1 66899U 25283X   25350.34247681 -.00393439  00000+0 -16501-2 0  9995
2 66899  53.1541  55.5886 0002964 340.0075  20.0833 15.85752214  3027
STARLINK-36074          
1 66900U 25283Y   25349.90071478  .00581649  00000+0  19410-2 0  9999
2 66900  53.1545  57.8112 0000878  52.2538 307.8567 15.88236866  2953
STARLINK-36043          
1 66901U 25283Z   25350.34100483 -.02528635  00000+0 -11425-1 0  9996
2 66901  53.1547  55.5785 0011652 310.9760  49.0256 15.86245942  3022
STARLINK-35983          
1 66902U 25283AA  25350.21451739 -.01383847  00000+0 -62121-2 0  9999
2 66902  53.1543  56.2118 0004080 285.3678  74.6896 15.86199889  3007
STARLINK-36077          
1 66903U 25283AB  25350.21407177 -.01426879  00000+0 -64255-2 0  9990
2 66903  53.1547  56.2089 0004304 283.6545  76.4001 15.86224281  3005
STARLINK-36059          
1 66904U 25283AC  25350.34018831  .00538448  00000+0  20007-2 0  9990
2 66904  53.1541  55.5728 0003399 167.9998 192.1108 15.86148148  3024
STARLINK-36075          
1 66905U 25283AD  25350.33978415  .00503978  00000+0  18815-2 0  9997
2 66905  53.1544  55.5703 0004328 210.6645 149.4127 15.86132162  3024
1998-067XS              
1 66906U 98067XS  25349.69380656  .00020263  00000+0  35287-3 0  9993
2 66906  51.6303 127.7667 0003289 216.5725 143.5040 15.50732342  2071
1998-067XT              
1 66907U 98067XT  25349.81796831  .00050230  00000+0  82637-3 0  9992
2 66907  51.6296 127.0953 0004121 244.2963 115.7601 15.51845045  2094
1998-067XU              
1 66908U 98067XU  25349.75307051  .00049466  00000+0  81150-3 0  9996
2 66908  51.6291 127.4116 0004237 243.4196 116.6360 15.51929885  2088
