CCSDS_OMM_VERS = 2.0
CREATION_DATE  = 
ORIGINATOR     = 

OBJECT_NAME    = STARLINK-36079
OBJECT_ID      = 2025-283V
CENTER_NAME    = EARTH
REF_FRAME      = TEME
TIME_SYSTEM    = UTC
MEAN_ELEMENT_THEORY = SGP/SGP4

EPOCH          = 2025-12-16T05:13:01.425504
MEAN_MOTION    = 15.86956658
ECCENTRICITY   = .00048335
INCLINATION    = 53.1545
RA_OF_ASC_NODE = 56.2318
ARG_OF_PERICENTER = 212.6630
MEAN_ANOMALY   = 147.4097

EPHEMERIS_TYPE = 0
CLASSIFICATION_TYPE = U
NORAD_CAT_ID   = 66897
ELEMENT_SET_NO = 999
REV_AT_EPOCH   = 300
BSTAR          = .2056577E-2
MEAN_MOTION_DOT = .578477E-2
MEAN_MOTION_DDOT = 0

CCSDS_OMM_VERS = 2.0
CREATION_DATE  = 
ORIGINATOR     = 

OBJECT_NAME    = STARLINK-36065
OBJECT_ID      = 2025-283W
CENTER_NAME    = EARTH
REF_FRAME      = TEME
TIME_SYSTEM    = UTC
MEAN_ELEMENT_THEORY = SGP/SGP4

EPOCH          = 2025-12-16T08:13:50.530944
MEAN_MOTION    = 15.85783112
ECCENTRICITY   = .00029326
INCLINATION    = 53.1541
RA_OF_ASC_NODE = 55.5915
ARG_OF_PERICENTER = 349.8156
MEAN_ANOMALY   = 10.2809

EPHEMERIS_TYPE = 0
CLASSIFICATION_TYPE = U
NORAD_CAT_ID   = 66898
ELEMENT_SET_NO = 999
REV_AT_EPOCH   = 302
BSTAR          = -.15029311E-2
MEAN_MOTION_DOT = -.360277E-2
MEAN_MOTION_DDOT = 0

CCSDS_OMM_VERS = 2.0
CREATION_DATE  = 
ORIGINATOR     = 

OBJECT_NAME    = STARLINK-36064
OBJECT_ID      = 2025-283X
CENTER_NAME    = EARTH
REF_FRAME      = TEME
TIME_SYSTEM    = UTC
MEAN_ELEMENT_THEORY = SGP/SGP4

EPOCH          = 2025-12-16T08:13:09.996384
MEAN_MOTION    = 15.85752214
ECCENTRICITY   = .00029648
INCLINATION    = 53.1541
RA_OF_ASC_NODE = 55.5886
ARG_OF_PERICENTER = 340.0075
MEAN_ANOMALY   = 20.0833

EPHEMERIS_TYPE = 0
CLASSIFICATION_TYPE = U
NORAD_CAT_ID   = 66899
ELEMENT_SET_NO = 999
REV_AT_EPOCH   = 302
BSTAR          = -.16500877E-2
MEAN_MOTION_DOT = -.393439E-2
MEAN_MOTION_DDOT = 0

CCSDS_OMM_VERS = 2.0
CREATION_DATE  = 
ORIGINATOR     = 

OBJECT_NAME    = STARLINK-36074
OBJECT_ID      = 2025-283Y
CENTER_NAME    = EARTH
REF_FRAME      = TEME
TIME_SYSTEM    = UTC
MEAN_ELEMENT_THEORY = SGP/SGP4

EPOCH          = 2025-12-15T21:37:01.756992
MEAN_MOTION    = 15.88236866
ECCENTRICITY   = .00008782
INCLINATION    = 53.1545
RA_OF_ASC_NODE = 57.8112
ARG_OF_PERICENTER = 52.2538
MEAN_ANOMALY   = 307.8567

EPHEMERIS_TYPE = 0
CLASSIFICATION_TYPE = U
NORAD_CAT_ID   = 66900
ELEMENT_SET_NO = 999
REV_AT_EPOCH   = 295
BSTAR          = .19410025E-2
MEAN_MOTION_DOT = .581649E-2
MEAN_MOTION_DDOT = 0

CCSDS_OMM_VERS = 2.0
CREATION_DATE  = 
ORIGINATOR     = 

OBJECT_NAME    = STARLINK-36043
OBJECT_ID      = 2025-283Z
CENTER_NAME    = EARTH
REF_FRAME      = TEME
TIME_SYSTEM    = UTC
MEAN_ELEMENT_THEORY = SGP/SGP4

EPOCH          = 2025-12-16T08:11:02.817312
MEAN_MOTION    = 15.86245942
ECCENTRICITY   = .00116527
INCLINATION    = 53.1547
RA_OF_ASC_NODE = 55.5785
ARG_OF_PERICENTER = 310.9760
MEAN_ANOMALY   = 49.0256

EPHEMERIS_TYPE = 0
CLASSIFICATION_TYPE = U
NORAD_CAT_ID   = 66901
ELEMENT_SET_NO = 999
REV_AT_EPOCH   = 302
BSTAR          = -.11424595E-1
MEAN_MOTION_DOT = -.2528635E-1
MEAN_MOTION_DDOT = 0

CCSDS_OMM_VERS = 2.0
CREATION_DATE  = 
ORIGINATOR     = 

OBJECT_NAME    = STARLINK-35983
OBJECT_ID      = 2025-283AA
CENTER_NAME    = EARTH
REF_FRAME      = TEME
TIME_SYSTEM    = UTC
MEAN_ELEMENT_THEORY = SGP/SGP4

EPOCH          = 2025-12-16T05:08:54.302496
MEAN_MOTION    = 15.86199889
ECCENTRICITY   = .00040802
INCLINATION    = 53.1543
RA_OF_ASC_NODE = 56.2118
ARG_OF_PERICENTER = 285.3678
MEAN_ANOMALY   = 74.6896

EPHEMERIS_TYPE = 0
CLASSIFICATION_TYPE = U
NORAD_CAT_ID   = 66902
ELEMENT_SET_NO = 999
REV_AT_EPOCH   = 300
BSTAR          = -.62121193E-2
MEAN_MOTION_DOT = -.1383847E-1
MEAN_MOTION_DDOT = 0

CCSDS_OMM_VERS = 2.0
CREATION_DATE  = 
ORIGINATOR     = 

OBJECT_NAME    = STARLINK-36077
OBJECT_ID      = 2025-283AB
CENTER_NAME    = EARTH
REF_FRAME      = TEME
TIME_SYSTEM    = UTC
MEAN_ELEMENT_THEORY = SGP/SGP4

EPOCH          = 2025-12-16T05:08:15.800928
MEAN_MOTION    = 15.86224281
ECCENTRICITY   = .00043042
INCLINATION    = 53.1547
RA_OF_ASC_NODE = 56.2089
ARG_OF_PERICENTER = 283.6545
MEAN_ANOMALY   = 76.4001

EPHEMERIS_TYPE = 0
CLASSIFICATION_TYPE = U
NORAD_CAT_ID   = 66903
ELEMENT_SET_NO = 999
REV_AT_EPOCH   = 300
BSTAR          = -.64254703E-2
MEAN_MOTION_DOT = -.1426879E-1
MEAN_MOTION_DDOT = 0

CCSDS_OMM_VERS = 2.0
CREATION_DATE  = 
ORIGINATOR     = 

OBJECT_NAME    = STARLINK-36059
OBJECT_ID      = 2025-283AC
CENTER_NAME    = EARTH
REF_FRAME      = TEME
TIME_SYSTEM    = UTC
MEAN_ELEMENT_THEORY = SGP/SGP4

EPOCH          = 2025-12-16T08:09:52.269984
MEAN_MOTION    = 15.86148148
ECCENTRICITY   = .00033992
INCLINATION    = 53.1541
RA_OF_ASC_NODE = 55.5728
ARG_OF_PERICENTER = 167.9998
MEAN_ANOMALY   = 192.1108

EPHEMERIS_TYPE = 0
CLASSIFICATION_TYPE = U
NORAD_CAT_ID   = 66904
ELEMENT_SET_NO = 999
REV_AT_EPOCH   = 302
BSTAR          = .20006915E-2
MEAN_MOTION_DOT = .538448E-2
MEAN_MOTION_DDOT = 0

CCSDS_OMM_VERS = 2.0
CREATION_DATE  = 
ORIGINATOR     = 

OBJECT_NAME    = STARLINK-36075
OBJECT_ID      = 2025-283AD
CENTER_NAME    = EARTH
REF_FRAME      = TEME
TIME_SYSTEM    = UTC
MEAN_ELEMENT_THEORY = SGP/SGP4

EPOCH          = 2025-12-16T08:09:17.350560
MEAN_MOTION    = 15.86132162
ECCENTRICITY   = .00043288
INCLINATION    = 53.1544
RA_OF_ASC_NODE = 55.5703
ARG_OF_PERICENTER = 210.6645
MEAN_ANOMALY   = 149.4127

EPHEMERIS_TYPE = 0
CLASSIFICATION_TYPE = U
NORAD_CAT_ID   = 66905
ELEMENT_SET_NO = 999
REV_AT_EPOCH   = 302
BSTAR          = .18814578E-2
MEAN_MOTION_DOT = .503978E-2
MEAN_MOTION_DDOT = 0

CCSDS_OMM_VERS = 2.0
CREATION_DATE  = 
ORIGINATOR     = 

OBJECT_NAME    = 1998-067XS
OBJECT_ID      = 1998-067XS
CENTER_NAME    = EARTH
REF_FRAME      = TEME
TIME_SYSTEM    = UTC
MEAN_ELEMENT_THEORY = SGP/SGP4

EPOCH          = 2025-12-15T16:39:04.886784
MEAN_MOTION    = 15.50732342
ECCENTRICITY   = .00032898
INCLINATION    = 51.6303
RA_OF_ASC_NODE = 127.7667
ARG_OF_PERICENTER = 216.5725
MEAN_ANOMALY   = 143.5040

EPHEMERIS_TYPE = 0
CLASSIFICATION_TYPE = U
NORAD_CAT_ID   = 66906
ELEMENT_SET_NO = 999
REV_AT_EPOCH   = 207
BSTAR          = .35286566E-3
MEAN_MOTION_DOT = .20263E-3
MEAN_MOTION_DDOT = 0

CCSDS_OMM_VERS = 2.0
CREATION_DATE  = 
ORIGINATOR     = 

OBJECT_NAME    = 1998-067XT
OBJECT_ID      = 1998-067XT
CENTER_NAME    = EARTH
REF_FRAME      = TEME
TIME_SYSTEM    = UTC
MEAN_ELEMENT_THEORY = SGP/SGP4

EPOCH          = 2025-12-15T19:37:52.461984
MEAN_MOTION    = 15.51845045
ECCENTRICITY   = .00041213
INCLINATION    = 51.6296
RA_OF_ASC_NODE = 127.0953
ARG_OF_PERICENTER = 244.2963
MEAN_ANOMALY   = 115.7601

EPHEMERIS_TYPE = 0
CLASSIFICATION_TYPE = U
NORAD_CAT_ID   = 66907
ELEMENT_SET_NO = 999
REV_AT_EPOCH   = 209
BSTAR          = .82636885E-3
MEAN_MOTION_DOT = .5023E-3
MEAN_MOTION_DDOT = 0

CCSDS_OMM_VERS = 2.0
CREATION_DATE  = 
ORIGINATOR     = 

OBJECT_NAME    = 1998-067XU
OBJECT_ID      = 1998-067XU
CENTER_NAME    = EARTH
REF_FRAME      = TEME
TIME_SYSTEM    = UTC
MEAN_ELEMENT_THEORY = SGP/SGP4

EPOCH          = 2025-12-15T18:04:25.292064
MEAN_MOTION    = 15.51929885
ECCENTRICITY   = .00042378
INCLINATION    = 51.6291
RA_OF_ASC_NODE = 127.4116
ARG_OF_PERICENTER = 243.4196
MEAN_ANOMALY   = 116.6360

EPHEMERIS_TYPE = 0
CLASSIFICATION_TYPE = U
NORAD_CAT_ID   = 66908
ELEMENT_SET_NO = 999
REV_AT_EPOCH   = 208
BSTAR          = .81150303E-3
MEAN_MOTION_DOT = .49466E-3
MEAN_MOTION_DDOT = 0

